[{"OBJECT_NAME":"STARLINK-3795","OBJECT_ID":"2022-041D","EPOCH":"2026-03-09T12:13:43.208832","MEAN_MOTION":15.08838228,"ECCENTRICITY":0.0001396,"INCLINATION":53.2161,"RA_OF_ASC_NODE":109.93,"ARG_OF_PERICENTER":77.4453,"MEAN_ANOMALY":282.6695,"EPHEMERIS_TYPE":0,"CLASSIFICATION_TYPE":"U","NORAD_CAT_ID":52264,"ELEMENT_SET_NO":999,"REV_AT_EPOCH":21433,"BSTAR":3.4946004e-5,"MEAN_MOTION_DOT":2.68e-6,"MEAN_MOTION_DDOT":0},{"OBJECT_NAME":"COSMOS 1408 DEB","OBJECT_ID":"1982-092ADS","EPOCH":"2026-03-09T15:14:01.495392","MEAN_MOTION":15.34178134,"ECCENTRICITY":0.0122957,"INCLINATION":82.1939,"RA_OF_ASC_NODE":124.7493,"ARG_OF_PERICENTER":254.6382,"MEAN_ANOMALY":104.1246,"EPHEMERIS_TYPE":0,"CLASSIFICATION_TYPE":"U","NORAD_CAT_ID":50404,"ELEMENT_SET_NO":999,"REV_AT_EPOCH":22516,"BSTAR":0.0029669,"MEAN_MOTION_DOT":0.00127192,"MEAN_MOTION_DDOT":0}]
